[{"OBJECT_NAME":"STARLINK-5808","OBJECT_ID":"2023-083BD","EPOCH":"2026-03-09T22:00:01.999584","MEAN_MOTION":15.14004269,"ECCENTRICITY":0.00016373,"INCLINATION":42.9994,"RA_OF_ASC_NODE":337.5456,"ARG_OF_PERICENTER":220.5285,"MEAN_ANOMALY":42.6839,"EPHEMERIS_TYPE":0,"CLASSIFICATION_TYPE":"U","NORAD_CAT_ID":56927,"ELEMENT_SET_NO":999,"REV_AT_EPOCH":563,"BSTAR":0.0028761116,"MEAN_MOTION_DOT":0.00053329,"MEAN_MOTION_DDOT":0},{"OBJECT_NAME":"SHIJIAN-30B (SJ-30B)","OBJECT_ID":"2025-266B","EPOCH":"2026-03-09T22:16:30.653184","MEAN_MOTION":15.15274975,"ECCENTRICITY":0.0009234,"INCLINATION":51.7956,"RA_OF_ASC_NODE":284.3547,"ARG_OF_PERICENTER":294.0763,"MEAN_ANOMALY":65.9247,"EPHEMERIS_TYPE":0,"CLASSIFICATION_TYPE":"U","NORAD_CAT_ID":66546,"ELEMENT_SET_NO":999,"REV_AT_EPOCH":1680,"BSTAR":0.00057385906,"MEAN_MOTION_DOT":0.00010651,"MEAN_MOTION_DDOT":0}]
